[{"OBJECT_NAME":"HEAD-3E","OBJECT_ID":"2023-121E","EPOCH":"2026-03-09T23:59:07.461888","MEAN_MOTION":14.63663641,"ECCENTRICITY":0.00059847,"INCLINATION":45.0019,"RA_OF_ASC_NODE":57.8251,"ARG_OF_PERICENTER":100.8925,"MEAN_ANOMALY":259.2607,"EPHEMERIS_TYPE":0,"CLASSIFICATION_TYPE":"U","NORAD_CAT_ID":57630,"ELEMENT_SET_NO":999,"REV_AT_EPOCH":13735,"BSTAR":0.00024519246,"MEAN_MOTION_DOT":1.125e-5,"MEAN_MOTION_DDOT":0},{"OBJECT_NAME":"SL-16 DEB","OBJECT_ID":"1992-093BF","EPOCH":"2026-03-09T22:12:38.856672","MEAN_MOTION":14.72346491,"ECCENTRICITY":0.00586329,"INCLINATION":71.1033,"RA_OF_ASC_NODE":240.9235,"ARG_OF_PERICENTER":125.1472,"MEAN_ANOMALY":355.5998,"EPHEMERIS_TYPE":0,"CLASSIFICATION_TYPE":"U","NORAD_CAT_ID":22366,"ELEMENT_SET_NO":999,"REV_AT_EPOCH":70952,"BSTAR":0.0043203483,"MEAN_MOTION_DOT":0.00028164,"MEAN_MOTION_DDOT":0}]
